[{"OBJECT_NAME":"SATMAR","OBJECT_ID":"2025-135Z","EPOCH":"2026-03-09T20:30:41.171616","MEAN_MOTION":15.2332395,"ECCENTRICITY":8.237e-5,"INCLINATION":97.4487,"RA_OF_ASC_NODE":185.1397,"ARG_OF_PERICENTER":164.2564,"MEAN_ANOMALY":195.8698,"EPHEMERIS_TYPE":0,"CLASSIFICATION_TYPE":"U","NORAD_CAT_ID":64551,"ELEMENT_SET_NO":999,"REV_AT_EPOCH":3979,"BSTAR":0.00047484624,"MEAN_MOTION_DOT":0.0001121,"MEAN_MOTION_DDOT":0},{"OBJECT_NAME":"DEAR-5","OBJECT_ID":"2025-296B","EPOCH":"2026-03-09T23:49:47.465472","MEAN_MOTION":15.17623217,"ECCENTRICITY":0.00202983,"INCLINATION":41.3572,"RA_OF_ASC_NODE":323.7156,"ARG_OF_PERICENTER":262.6695,"MEAN_ANOMALY":97.1819,"EPHEMERIS_TYPE":0,"CLASSIFICATION_TYPE":"U","NORAD_CAT_ID":67070,"ELEMENT_SET_NO":999,"REV_AT_EPOCH":1320,"BSTAR":0.00032921308,"MEAN_MOTION_DOT":6.585e-5,"MEAN_MOTION_DDOT":0}]
